{
  "type": "FeatureCollection",
  "features": [
    {
      "type": "Feature",
      "properties": {
        "norad_id": 66807,
        "name": "STARLINK-36000",
        "group": "last-30-days",
        "lat": 39.97933654469404,
        "lon": -67.80183066973512,
        "alt_km": 337.52650762177655,
        "timestamp": "2025-12-16T15:45:49.733103+00:00",
        "meta_object_name": "STARLINK-36000",
        "meta_object_id": "2025-278S",
        "meta_epoch": "2025-12-15T22:00:01.999584",
        "meta_mean_motion": 15.77913676,
        "meta_eccentricity": 0.00013789,
        "meta_inclination": 42.998,
        "meta_ra_of_asc_node": 232.5579,
        "meta_arg_of_pericenter": 278.1932,
        "meta_mean_anomaly": 265.8827,
        "meta_ephemeris_type": 0,
        "meta_classification_type": "U",
        "meta_norad_cat_id": 66807,
        "meta_element_set_no": 999,
        "meta_rev_at_epoch": 352,
        "meta_bstar": -0.0092377721,
        "meta_mean_motion_dot": -0.01428377,
        "meta_mean_motion_ddot": 0,
        "tle_line1": "1 66807U 25278S   25349.91668981 -.01428377  00000+0 -92378-2 0  9996",
        "tle_line2": "2 66807  42.9980 232.5579 0001378 278.1932 265.8827 15.77913676  3525"
      },
      "geometry": {
        "type": "Point",
        "coordinates": [
          -67.80183066973512,
          39.97933654469404
        ]
      }
    },
    {
      "type": "Feature",
      "properties": {
        "norad_id": 66808,
        "name": "STARLINK-36071",
        "group": "last-30-days",
        "lat": 40.534369979168765,
        "lon": -65.35237303292115,
        "alt_km": 337.7798791805981,
        "timestamp": "2025-12-16T15:45:49.733113+00:00",
        "meta_object_name": "STARLINK-36071",
        "meta_object_id": "2025-278T",
        "meta_epoch": "2025-12-15T22:00:01.999584",
        "meta_mean_motion": 15.77868548,
        "meta_eccentricity": 0.00014798,
        "meta_inclination": 42.998,
        "meta_ra_of_asc_node": 232.5526,
        "meta_arg_of_pericenter": 271.2874,
        "meta_mean_anomaly": 274.8741,
        "meta_ephemeris_type": 0,
        "meta_classification_type": "U",
        "meta_norad_cat_id": 66808,
        "meta_element_set_no": 999,
        "meta_rev_at_epoch": 346,
        "meta_bstar": -0.0092911105,
        "meta_mean_motion_dot": -0.01433139,
        "meta_mean_motion_ddot": 0,
        "tle_line1": "1 66808U 25278T   25349.91668981 -.01433139  00000+0 -92911-2 0  9992",
        "tle_line2": "2 66808  42.9980 232.5526 0001479 271.2874 274.8741 15.77868548  3464"
      },
      "geometry": {
        "type": "Point",
        "coordinates": [
          -65.35237303292115,
          40.534369979168765
        ]
      }
    },
    {
      "type": "Feature",
      "properties": {
        "norad_id": 66809,
        "name": "STARLINK-35979",
        "group": "last-30-days",
        "lat": 41.879026357952256,
        "lon": -57.76024181512564,
        "alt_km": 338.4292056835384,
        "timestamp": "2025-12-16T15:45:49.733125+00:00",
        "meta_object_name": "STARLINK-35979",
        "meta_object_id": "2025-278U",
        "meta_epoch": "2025-12-15T22:00:01.999584",
        "meta_mean_motion": 15.77646777,
        "meta_eccentricity": 0.00014797,
        "meta_inclination": 42.9981,
        "meta_ra_of_asc_node": 232.5359,
        "meta_arg_of_pericenter": 272.911,
        "meta_mean_anomaly": 279.801,
        "meta_ephemeris_type": 0,
        "meta_classification_type": "U",
        "meta_norad_cat_id": 66809,
        "meta_element_set_no": 999,
        "meta_rev_at_epoch": 346,
        "meta_bstar": -0.009659821,
        "meta_mean_motion_dot": -0.01470149,
        "meta_mean_motion_ddot": 0,
        "tle_line1": "1 66809U 25278U   25349.91668981 -.01470149  00000+0 -96598-2 0  9990",
        "tle_line2": "2 66809  42.9981 232.5359 0001479 272.9110 279.8010 15.77646777  3463"
      },
      "geometry": {
        "type": "Point",
        "coordinates": [
          -57.76024181512564,
          41.879026357952256
        ]
      }
    },
    {
      "type": "Feature",
      "properties": {
        "norad_id": 66810,
        "name": "STARLINK-36046",
        "group": "last-30-days",
        "lat": 41.042106412266016,
        "lon": -62.836835690040154,
        "alt_km": 337.91995988128383,
        "timestamp": "2025-12-16T15:45:49.733135+00:00",
        "meta_object_name": "STARLINK-36046",
        "meta_object_id": "2025-278V",
        "meta_epoch": "2025-12-15T22:00:01.999584",
        "meta_mean_motion": 15.77789487,
        "meta_eccentricity": 0.00014383,
        "meta_inclination": 42.9984,
        "meta_ra_of_asc_node": 232.5472,
        "meta_arg_of_pericenter": 275.6975,
        "meta_mean_anomaly": 272.6734,
        "meta_ephemeris_type": 0,
        "meta_classification_type": "U",
        "meta_norad_cat_id": 66810,
        "meta_element_set_no": 999,
        "meta_rev_at_epoch": 324,
        "meta_bstar": -0.0094091753,
        "meta_mean_motion_dot": -0.01444619,
        "meta_mean_motion_ddot": 0,
        "tle_line1": "1 66810U 25278V   25349.91668981 -.01444619  00000+0 -94092-2 0  9992",
        "tle_line2": "2 66810  42.9984 232.5472 0001438 275.6975 272.6734 15.77789487  3244"
      },
      "geometry": {
        "type": "Point",
        "coordinates": [
          -62.836835690040154,
          41.042106412266016
        ]
      }
    },
    {
      "type": "Feature",
      "properties": {
        "norad_id": 66811,
        "name": "STARLINK-36045",
        "group": "last-30-days",
        "lat": 41.491963890563866,
        "lon": -60.29582905956068,
        "alt_km": 338.20144788721973,
        "timestamp": "2025-12-16T15:45:49.733145+00:00",
        "meta_object_name": "STARLINK-36045",
        "meta_object_id": "2025-278W",
        "meta_epoch": "2025-12-15T22:00:01.999584",
        "meta_mean_motion": 15.77706495,
        "meta_eccentricity": 0.00014586,
        "meta_inclination": 42.9985,
        "meta_ra_of_asc_node": 232.5416,
        "meta_arg_of_pericenter": 273.5144,
        "meta_mean_anomaly": 277.0673,
        "meta_ephemeris_type": 0,
        "meta_classification_type": "U",
        "meta_norad_cat_id": 66811,
        "meta_element_set_no": 999,
        "meta_rev_at_epoch": 346,
        "meta_bstar": -0.0095206598,
        "meta_mean_motion_dot": -0.01454901,
        "meta_mean_motion_ddot": 0,
        "tle_line1": "1 66811U 25278W   25349.91668981 -.01454901  00000+0 -95207-2 0  9997",
        "tle_line2": "2 66811  42.9985 232.5416 0001458 273.5144 277.0673 15.77706495  3464"
      },
      "geometry": {
        "type": "Point",
        "coordinates": [
          -60.29582905956068,
          41.491963890563866
        ]
      }
    },
    {
      "type": "Feature",
      "properties": {
        "norad_id": 66812,
        "name": "STARLINK-36054",
        "group": "last-30-days",
        "lat": 42.211088933367776,
        "lon": -55.185471682109366,
        "alt_km": 338.45799982421886,
        "timestamp": "2025-12-16T15:45:49.733155+00:00",
        "meta_object_name": "STARLINK-36054",
        "meta_object_id": "2025-278X",
        "meta_epoch": "2025-12-15T22:00:01.999584",
        "meta_mean_motion": 15.77606489,
        "meta_eccentricity": 0.00014391,
        "meta_inclination": 42.9982,
        "meta_ra_of_asc_node": 232.531,
        "meta_arg_of_pericenter": 273.7579,
        "meta_mean_anomaly": 280.9969,
        "meta_ephemeris_type": 0,
        "meta_classification_type": "U",
        "meta_norad_cat_id": 66812,
        "meta_element_set_no": 999,
        "meta_rev_at_epoch": 346,
        "meta_bstar": -0.0096562001,
        "meta_mean_motion_dot": -0.01467274,
        "meta_mean_motion_ddot": 0,
        "tle_line1": "1 66812U 25278X   25349.91668981 -.01467274  00000+0 -96562-2 0  9990",
        "tle_line2": "2 66812  42.9982 232.5310 0001439 273.7579 280.9969 15.77606489  3461"
      },
      "geometry": {
        "type": "Point",
        "coordinates": [
          -55.185471682109366,
          42.211088933367776
        ]
      }
    },
    {
      "type": "Feature",
      "properties": {
        "norad_id": 66813,
        "name": "STARLINK-36042",
        "group": "last-30-days",
        "lat": 42.48266875218393,
        "lon": -52.60798596964036,
        "alt_km": 338.47508261432176,
        "timestamp": "2025-12-16T15:45:49.733165+00:00",
        "meta_object_name": "STARLINK-36042",
        "meta_object_id": "2025-278Y",
        "meta_epoch": "2025-12-15T22:00:01.999584",
        "meta_mean_motion": 15.77579693,
        "meta_eccentricity": 0.00014423,
        "meta_inclination": 42.9982,
        "meta_ra_of_asc_node": 232.5257,
        "meta_arg_of_pericenter": 277.63,
        "meta_mean_anomaly": 279.124,
        "meta_ephemeris_type": 0,
        "meta_classification_type": "U",
        "meta_norad_cat_id": 66813,
        "meta_element_set_no": 999,
        "meta_rev_at_epoch": 346,
        "meta_bstar": -0.0096787391,
        "meta_mean_motion_dot": -0.01468723,
        "meta_mean_motion_ddot": 0,
        "tle_line1": "1 66813U 25278Y   25349.91668981 -.01468723  00000+0 -96787-2 0  9990",
        "tle_line2": "2 66813  42.9982 232.5257 0001442 277.6300 279.1240 15.77579693  3469"
      },
      "geometry": {
        "type": "Point",
        "coordinates": [
          -52.60798596964036,
          42.48266875218393
        ]
      }
    }
  ]
}